{
  "type": "FeatureCollection",
  "features": [
    {
      "type": "Feature",
      "properties": {
        "norad_id": 37423,
        "name": "FENGYUN 1C DEB",
        "group": "fengyun-1c-debris",
        "lat": 52.92075444358445,
        "lon": 17.392059809325637,
        "alt_km": 884.5862736455501,
        "timestamp": "2025-12-04T17:48:40.455021+00:00",
        "meta_object_name": "FENGYUN 1C DEB",
        "meta_object_id": "1999-025EGR",
        "meta_epoch": "2025-12-02T09:15:11.081088",
        "meta_mean_motion": 14.07508063,
        "meta_eccentricity": 0.00491371,
        "meta_inclination": 98.7874,
        "meta_ra_of_asc_node": 26.9108,
        "meta_arg_of_pericenter": 188.2995,
        "meta_mean_anomaly": 171.7367,
        "meta_ephemeris_type": 0,
        "meta_classification_type": "U",
        "meta_norad_cat_id": 37423,
        "meta_element_set_no": 999,
        "meta_rev_at_epoch": 63464,
        "meta_bstar": 0.00087659335,
        "meta_mean_motion_dot": 1.451e-05,
        "meta_mean_motion_ddot": 0,
        "tle_line1": "1 37423U 99025EGR 25336.38554492  .00001451  00000+0  87659-3 0  9991",
        "tle_line2": "2 37423  98.7874  26.9108 0049137 188.2995 171.7367 14.07508063634645"
      },
      "geometry": {
        "type": "Point",
        "coordinates": [
          17.392059809325637,
          52.92075444358445
        ]
      }
    },
    {
      "type": "Feature",
      "properties": {
        "norad_id": 37424,
        "name": "FENGYUN 1C DEB",
        "group": "fengyun-1c-debris",
        "lat": -5.700500815817094,
        "lon": 109.45749214478084,
        "alt_km": 730.4946701192721,
        "timestamp": "2025-12-04T17:48:40.455031+00:00",
        "meta_object_name": "FENGYUN 1C DEB",
        "meta_object_id": "1999-025EGS",
        "meta_epoch": "2025-11-26T15:03:16.540128",
        "meta_mean_motion": 14.17748147,
        "meta_eccentricity": 0.02143557,
        "meta_inclination": 97.1976,
        "meta_ra_of_asc_node": 102.1461,
        "meta_arg_of_pericenter": 331.0381,
        "meta_mean_anomaly": 27.9039,
        "meta_ephemeris_type": 0,
        "meta_classification_type": "U",
        "meta_norad_cat_id": 37424,
        "meta_element_set_no": 999,
        "meta_rev_at_epoch": 68345,
        "meta_bstar": 0.00085242664,
        "meta_mean_motion_dot": 2.145e-05,
        "meta_mean_motion_ddot": 0,
        "tle_line1": "1 37424U 99025EGS 25330.62727477  .00002145  00000+0  85243-3 0  9996",
        "tle_line2": "2 37424  97.1976 102.1461 0214355 331.0381  27.9039 14.17748147683455"
      },
      "geometry": {
        "type": "Point",
        "coordinates": [
          109.45749214478084,
          -5.700500815817094
        ]
      }
    },
    {
      "type": "Feature",
      "properties": {
        "norad_id": 37427,
        "name": "FENGYUN 1C DEB",
        "group": "fengyun-1c-debris",
        "lat": -64.93250819427443,
        "lon": -79.15904437575479,
        "alt_km": 550.9833022601251,
        "timestamp": "2025-12-04T17:48:40.455042+00:00",
        "meta_object_name": "FENGYUN 1C DEB",
        "meta_object_id": "1999-025EGV",
        "meta_epoch": "2025-11-25T03:26:10.747680",
        "meta_mean_motion": 14.97768919,
        "meta_eccentricity": 0.01887185,
        "meta_inclination": 98.6232,
        "meta_ra_of_asc_node": 109.1733,
        "meta_arg_of_pericenter": 355.7363,
        "meta_mean_anomaly": 4.2239,
        "meta_ephemeris_type": 0,
        "meta_classification_type": "U",
        "meta_norad_cat_id": 37427,
        "meta_element_set_no": 999,
        "meta_rev_at_epoch": 60059,
        "meta_bstar": 0.00046451943,
        "meta_mean_motion_dot": 7.8e-05,
        "meta_mean_motion_ddot": 0,
        "tle_line1": "1 37427U 99025EGV 25329.14317995  .00007800  00000+0  46452-3 0  9996",
        "tle_line2": "2 37427  98.6232 109.1733 0188718 355.7363   4.2239 14.97768919600595"
      },
      "geometry": {
        "type": "Point",
        "coordinates": [
          -79.15904437575479,
          -64.93250819427443
        ]
      }
    },
    {
      "type": "Feature",
      "properties": {
        "norad_id": 37430,
        "name": "FENGYUN 1C DEB",
        "group": "fengyun-1c-debris",
        "lat": -16.14615951285086,
        "lon": 55.36803154996208,
        "alt_km": 805.2304416082152,
        "timestamp": "2025-12-04T17:48:40.455052+00:00",
        "meta_object_name": "FENGYUN 1C DEB",
        "meta_object_id": "1999-025EGY",
        "meta_epoch": "2025-12-02T22:11:25.130688",
        "meta_mean_motion": 14.28805827,
        "meta_eccentricity": 0.00188558,
        "meta_inclination": 98.7667,
        "meta_ra_of_asc_node": 50.9812,
        "meta_arg_of_pericenter": 100.007,
        "meta_mean_anomaly": 260.324,
        "meta_ephemeris_type": 0,
        "meta_classification_type": "U",
        "meta_norad_cat_id": 37430,
        "meta_element_set_no": 999,
        "meta_rev_at_epoch": 61561,
        "meta_bstar": 0.0024289087,
        "meta_mean_motion_dot": 6.093e-05,
        "meta_mean_motion_ddot": 0,
        "tle_line1": "1 37430U 99025EGY 25336.92459642  .00006093  00000+0  24289-2 0  9996",
        "tle_line2": "2 37430  98.7667  50.9812 0018855 100.0070 260.3240 14.28805827615613"
      },
      "geometry": {
        "type": "Point",
        "coordinates": [
          55.36803154996208,
          -16.14615951285086
        ]
      }
    },
    {
      "type": "Feature",
      "properties": {
        "norad_id": 37432,
        "name": "FENGYUN 1C DEB",
        "group": "fengyun-1c-debris",
        "lat": 74.55347302237287,
        "lon": -39.19542968825864,
        "alt_km": 778.6504464638074,
        "timestamp": "2025-12-04T17:48:40.455062+00:00",
        "meta_object_name": "FENGYUN 1C DEB",
        "meta_object_id": "1999-025EHA",
        "meta_epoch": "2025-12-02T07:37:37.120800",
        "meta_mean_motion": 14.5327938,
        "meta_eccentricity": 0.01827667,
        "meta_inclination": 98.1849,
        "meta_ra_of_asc_node": 349.8265,
        "meta_arg_of_pericenter": 320.333,
        "meta_mean_anomaly": 38.4615,
        "meta_ephemeris_type": 0,
        "meta_classification_type": "U",
        "meta_norad_cat_id": 37432,
        "meta_element_set_no": 999,
        "meta_rev_at_epoch": 8225,
        "meta_bstar": 0.0011757415,
        "meta_mean_motion_dot": 6.037e-05,
        "meta_mean_motion_ddot": 0,
        "tle_line1": "1 37432U 99025EHA 25336.31779075  .00006037  00000+0  11757-2 0  9990",
        "tle_line2": "2 37432  98.1849 349.8265 0182766 320.3330  38.4615 14.53279380 82257"
      },
      "geometry": {
        "type": "Point",
        "coordinates": [
          -39.19542968825864,
          74.55347302237287
        ]
      }
    },
    {
      "type": "Feature",
      "properties": {
        "norad_id": 37435,
        "name": "FENGYUN 1C DEB",
        "group": "fengyun-1c-debris",
        "lat": 17.421697840173728,
        "lon": -162.05774348746752,
        "alt_km": 834.6290121612146,
        "timestamp": "2025-12-04T17:48:40.455072+00:00",
        "meta_object_name": "FENGYUN 1C DEB",
        "meta_object_id": "1999-025EHD",
        "meta_epoch": "2025-11-29T08:44:14.359776",
        "meta_mean_motion": 14.22271668,
        "meta_eccentricity": 0.00410088,
        "meta_inclination": 98.6499,
        "meta_ra_of_asc_node": 9.9283,
        "meta_arg_of_pericenter": 53.3524,
        "meta_mean_anomaly": 307.1414,
        "meta_ephemeris_type": 0,
        "meta_classification_type": "U",
        "meta_norad_cat_id": 37435,
        "meta_element_set_no": 999,
        "meta_rev_at_epoch": 88749,
        "meta_bstar": 0.00099361212,
        "meta_mean_motion_dot": 2.183e-05,
        "meta_mean_motion_ddot": 0,
        "tle_line1": "1 37435U 99025EHD 25333.36405509  .00002183  00000+0  99361-3 0  9999",
        "tle_line2": "2 37435  98.6499   9.9283 0041008  53.3524 307.1414 14.22271668887490"
      },
      "geometry": {
        "type": "Point",
        "coordinates": [
          -162.05774348746752,
          17.421697840173728
        ]
      }
    },
    {
      "type": "Feature",
      "properties": {
        "norad_id": 37436,
        "name": "FENGYUN 1C DEB",
        "group": "fengyun-1c-debris",
        "lat": -11.748528442279252,
        "lon": 35.212024023330265,
        "alt_km": 919.3475604174109,
        "timestamp": "2025-12-04T17:48:40.455082+00:00",
        "meta_object_name": "FENGYUN 1C DEB",
        "meta_object_id": "1999-025EHE",
        "meta_epoch": "2025-12-03T21:22:40.554624",
        "meta_mean_motion": 14.06321133,
        "meta_eccentricity": 0.0059449,
        "meta_inclination": 98.9385,
        "meta_ra_of_asc_node": 32.4958,
        "meta_arg_of_pericenter": 172.588,
        "meta_mean_anomaly": 187.6181,
        "meta_ephemeris_type": 0,
        "meta_classification_type": "U",
        "meta_norad_cat_id": 37436,
        "meta_element_set_no": 999,
        "meta_rev_at_epoch": 63874,
        "meta_bstar": 0.00096549,
        "meta_mean_motion_dot": 1.574e-05,
        "meta_mean_motion_ddot": 0,
        "tle_line1": "1 37436U 99025EHE 25337.89074716  .00001574  00000+0  96549-3 0  9992",
        "tle_line2": "2 37436  98.9385  32.4958 0059449 172.5880 187.6181 14.06321133638744"
      },
      "geometry": {
        "type": "Point",
        "coordinates": [
          35.212024023330265,
          -11.748528442279252
        ]
      }
    }
  ]
}